[{"OBJECT_NAME":"STARLINK-5820","OBJECT_ID":"2023-028AS","EPOCH":"2026-03-09T19:28:07.575456","MEAN_MOTION":14.9832895,"ECCENTRICITY":0.0003108,"INCLINATION":70,"RA_OF_ASC_NODE":224.0872,"ARG_OF_PERICENTER":269.6171,"MEAN_ANOMALY":90.4631,"EPHEMERIS_TYPE":0,"CLASSIFICATION_TYPE":"U","NORAD_CAT_ID":55781,"ELEMENT_SET_NO":999,"REV_AT_EPOCH":16655,"BSTAR":-4.7828208e-5,"MEAN_MOTION_DOT":-6.64e-6,"MEAN_MOTION_DDOT":0},{"OBJECT_NAME":"DELFI-N3XT","OBJECT_ID":"2013-066N","EPOCH":"2026-03-09T17:56:16.820160","MEAN_MOTION":14.93675177,"ECCENTRICITY":0.00763289,"INCLINATION":97.8341,"RA_OF_ASC_NODE":349.2574,"ARG_OF_PERICENTER":176.1438,"MEAN_ANOMALY":184.0386,"EPHEMERIS_TYPE":0,"CLASSIFICATION_TYPE":"U","NORAD_CAT_ID":39428,"ELEMENT_SET_NO":999,"REV_AT_EPOCH":65977,"BSTAR":0.00065912071,"MEAN_MOTION_DOT":7.321e-5,"MEAN_MOTION_DDOT":0}]
